{
  "type": "FeatureCollection",
  "features": [
    {
      "type": "Feature",
      "properties": {
        "norad_id": 35033,
        "name": "COSMOS 2251 DEB",
        "group": "cosmos-2251-debris",
        "lat": -13.680028720764604,
        "lon": 176.1014111067039,
        "alt_km": 721.6737237237867,
        "timestamp": "2025-12-10T20:49:52.948482+00:00",
        "meta_object_name": "COSMOS 2251 DEB",
        "meta_object_id": "1993-036AGW",
        "meta_epoch": "2025-12-09T20:04:28.770240",
        "meta_mean_motion": 14.50906436,
        "meta_eccentricity": 0.00144326,
        "meta_inclination": 74.0258,
        "meta_ra_of_asc_node": 182.0397,
        "meta_arg_of_pericenter": 288.5729,
        "meta_mean_anomaly": 71.3864,
        "meta_ephemeris_type": 0,
        "meta_classification_type": "U",
        "meta_norad_cat_id": 35033,
        "meta_element_set_no": 999,
        "meta_rev_at_epoch": 65885,
        "meta_bstar": 0.0010175317,
        "meta_mean_motion_dot": 3.996e-05,
        "meta_mean_motion_ddot": 0,
        "tle_line1": "1 35033U 93036AGW 25343.83644410  .00003996  00000+0  10175-2 0  9994",
        "tle_line2": "2 35033  74.0258 182.0397 0014432 288.5729  71.3864 14.50906436658856"
      },
      "geometry": {
        "type": "Point",
        "coordinates": [
          176.1014111067039,
          -13.680028720764604
        ]
      }
    },
    {
      "type": "Feature",
      "properties": {
        "norad_id": 35038,
        "name": "COSMOS 2251 DEB",
        "group": "cosmos-2251-debris",
        "lat": 50.576357010569915,
        "lon": -154.32964148467136,
        "alt_km": 810.8324403960269,
        "timestamp": "2025-12-10T20:49:52.948492+00:00",
        "meta_object_name": "COSMOS 2251 DEB",
        "meta_object_id": "1993-036AHB",
        "meta_epoch": "2025-12-09T21:12:51.178752",
        "meta_mean_motion": 14.25117767,
        "meta_eccentricity": 0.01138214,
        "meta_inclination": 74.1071,
        "meta_ra_of_asc_node": 47.7141,
        "meta_arg_of_pericenter": 32.4196,
        "meta_mean_anomaly": 86.2003,
        "meta_ephemeris_type": 0,
        "meta_classification_type": "U",
        "meta_norad_cat_id": 35038,
        "meta_element_set_no": 999,
        "meta_rev_at_epoch": 85528,
        "meta_bstar": 0.0019860831,
        "meta_mean_motion_dot": 4.964e-05,
        "meta_mean_motion_ddot": 0,
        "tle_line1": "1 35038U 93036AHB 25343.88392568  .00004964  00000+0  19861-2 0  9995",
        "tle_line2": "2 35038  74.1071  47.7141 0113821  32.4196  86.2003 14.25117767855284"
      },
      "geometry": {
        "type": "Point",
        "coordinates": [
          -154.32964148467136,
          50.576357010569915
        ]
      }
    },
    {
      "type": "Feature",
      "properties": {
        "norad_id": 35043,
        "name": "COSMOS 2251 DEB",
        "group": "cosmos-2251-debris",
        "lat": -21.707022767835458,
        "lon": 42.684208467000424,
        "alt_km": 630.3671868966239,
        "timestamp": "2025-12-10T20:49:52.948502+00:00",
        "meta_object_name": "COSMOS 2251 DEB",
        "meta_object_id": "1993-036AHG",
        "meta_epoch": "2025-12-10T11:10:42.887424",
        "meta_mean_motion": 14.76758408,
        "meta_eccentricity": 0.00968597,
        "meta_inclination": 73.9504,
        "meta_ra_of_asc_node": 50.0569,
        "meta_arg_of_pericenter": 259.781,
        "meta_mean_anomaly": 99.243,
        "meta_ephemeris_type": 0,
        "meta_classification_type": "U",
        "meta_norad_cat_id": 35043,
        "meta_element_set_no": 999,
        "meta_rev_at_epoch": 67385,
        "meta_bstar": 0.0060386636,
        "meta_mean_motion_dot": 0.00045991,
        "meta_mean_motion_ddot": 0,
        "tle_line1": "1 35043U 93036AHG 25344.46577416  .00045991  00000+0  60387-2 0  9997",
        "tle_line2": "2 35043  73.9504  50.0569 0096859 259.7810  99.2430 14.76758408673855"
      },
      "geometry": {
        "type": "Point",
        "coordinates": [
          42.684208467000424,
          -21.707022767835458
        ]
      }
    },
    {
      "type": "Feature",
      "properties": {
        "norad_id": 35045,
        "name": "COSMOS 2251 DEB",
        "group": "cosmos-2251-debris",
        "lat": -39.50661221738527,
        "lon": 42.06934546785403,
        "alt_km": 773.2606775133818,
        "timestamp": "2025-12-10T20:49:52.948511+00:00",
        "meta_object_name": "COSMOS 2251 DEB",
        "meta_object_id": "1993-036AHJ",
        "meta_epoch": "2025-12-06T22:43:41.331360",
        "meta_mean_motion": 14.0036659,
        "meta_eccentricity": 0.0183364,
        "meta_inclination": 73.7196,
        "meta_ra_of_asc_node": 62.9336,
        "meta_arg_of_pericenter": 305.7539,
        "meta_mean_anomaly": 52.6659,
        "meta_ephemeris_type": 0,
        "meta_classification_type": "U",
        "meta_norad_cat_id": 35045,
        "meta_element_set_no": 999,
        "meta_rev_at_epoch": 84562,
        "meta_bstar": 0.0010227315,
        "meta_mean_motion_dot": 1.724e-05,
        "meta_mean_motion_ddot": 0,
        "tle_line1": "1 35045U 93036AHJ 25340.94700615  .00001724  00000+0  10227-2 0  9991",
        "tle_line2": "2 35045  73.7196  62.9336 0183364 305.7539  52.6659 14.00366590845620"
      },
      "geometry": {
        "type": "Point",
        "coordinates": [
          42.06934546785403,
          -39.50661221738527
        ]
      }
    },
    {
      "type": "Feature",
      "properties": {
        "norad_id": 35060,
        "name": "COSMOS 2251 DEB",
        "group": "cosmos-2251-debris",
        "lat": -50.183931815005,
        "lon": -132.27947412168731,
        "alt_km": 748.2840099127216,
        "timestamp": "2025-12-10T20:49:52.948521+00:00",
        "meta_object_name": "COSMOS 2251 DEB",
        "meta_object_id": "1993-036AHP",
        "meta_epoch": "2025-11-28T02:37:07.839264",
        "meta_mean_motion": 14.41547968,
        "meta_eccentricity": 0.00179641,
        "meta_inclination": 74.0363,
        "meta_ra_of_asc_node": 271.4275,
        "meta_arg_of_pericenter": 359.5881,
        "meta_mean_anomaly": 0.5257,
        "meta_ephemeris_type": 0,
        "meta_classification_type": "U",
        "meta_norad_cat_id": 35060,
        "meta_element_set_no": 999,
        "meta_rev_at_epoch": 87031,
        "meta_bstar": 0.0004076845,
        "meta_mean_motion_dot": 1.301e-05,
        "meta_mean_motion_ddot": 0,
        "tle_line1": "1 35060U 93036AHP 25332.10911851  .00001301  00000+0  40768-3 0  9998",
        "tle_line2": "2 35060  74.0363 271.4275 0017964 359.5881   0.5257 14.41547968870310"
      },
      "geometry": {
        "type": "Point",
        "coordinates": [
          -132.27947412168731,
          -50.183931815005
        ]
      }
    },
    {
      "type": "Feature",
      "properties": {
        "norad_id": 35061,
        "name": "COSMOS 2251 DEB",
        "group": "cosmos-2251-debris",
        "lat": 14.067988709178236,
        "lon": -46.55075337591897,
        "alt_km": 649.6102529793279,
        "timestamp": "2025-12-10T20:49:52.948531+00:00",
        "meta_object_name": "COSMOS 2251 DEB",
        "meta_object_id": "1993-036AHQ",
        "meta_epoch": "2025-12-10T04:24:26.439840",
        "meta_mean_motion": 14.67788932,
        "meta_eccentricity": 0.00390241,
        "meta_inclination": 74.0462,
        "meta_ra_of_asc_node": 310.6593,
        "meta_arg_of_pericenter": 62.2963,
        "meta_mean_anomaly": 298.2158,
        "meta_ephemeris_type": 0,
        "meta_classification_type": "U",
        "meta_norad_cat_id": 35061,
        "meta_element_set_no": 999,
        "meta_rev_at_epoch": 88537,
        "meta_bstar": 0.0011530424,
        "meta_mean_motion_dot": 6.628e-05,
        "meta_mean_motion_ddot": 0,
        "tle_line1": "1 35061U 93036AHQ 25344.18363935  .00006628  00000+0  11530-2 0  9995",
        "tle_line2": "2 35061  74.0462 310.6593 0039024  62.2963 298.2158 14.67788932885374"
      },
      "geometry": {
        "type": "Point",
        "coordinates": [
          -46.55075337591897,
          14.067988709178236
        ]
      }
    },
    {
      "type": "Feature",
      "properties": {
        "norad_id": 35062,
        "name": "COSMOS 2251 DEB",
        "group": "cosmos-2251-debris",
        "lat": 11.622981814933347,
        "lon": 99.96714196017646,
        "alt_km": 806.8135169388461,
        "timestamp": "2025-12-10T20:49:52.948541+00:00",
        "meta_object_name": "COSMOS 2251 DEB",
        "meta_object_id": "1993-036AHR",
        "meta_epoch": "2025-12-10T14:01:30.928800",
        "meta_mean_motion": 14.22905373,
        "meta_eccentricity": 0.01274035,
        "meta_inclination": 74.0772,
        "meta_ra_of_asc_node": 97.1092,
        "meta_arg_of_pericenter": 97.4445,
        "meta_mean_anomaly": 264.1198,
        "meta_ephemeris_type": 0,
        "meta_classification_type": "U",
        "meta_norad_cat_id": 35062,
        "meta_element_set_no": 999,
        "meta_rev_at_epoch": 85468,
        "meta_bstar": 0.0028422196,
        "meta_mean_motion_dot": 6.927e-05,
        "meta_mean_motion_ddot": 0,
        "tle_line1": "1 35062U 93036AHR 25344.58438575  .00006927  00000+0  28422-2 0  9993",
        "tle_line2": "2 35062  74.0772  97.1092 0127403  97.4445 264.1198 14.22905373854681"
      },
      "geometry": {
        "type": "Point",
        "coordinates": [
          99.96714196017646,
          11.622981814933347
        ]
      }
    }
  ]
}